[{"OBJECT_NAME":"STARLINK-30912","OBJECT_ID":"2023-180W","EPOCH":"2026-03-09T12:46:20.569728","MEAN_MOTION":15.27584533,"ECCENTRICITY":0.00020168,"INCLINATION":43.0033,"RA_OF_ASC_NODE":271.187,"ARG_OF_PERICENTER":274.9961,"MEAN_ANOMALY":85.066,"EPHEMERIS_TYPE":0,"CLASSIFICATION_TYPE":"U","NORAD_CAT_ID":58422,"ELEMENT_SET_NO":999,"REV_AT_EPOCH":12927,"BSTAR":-5.4391927e-5,"MEAN_MOTION_DOT":-1.759e-5,"MEAN_MOTION_DDOT":0},{"OBJECT_NAME":"TRANSPORTER-12 OBJECT BT","OBJECT_ID":"2025-009BT","EPOCH":"2026-03-09T17:08:24.281088","MEAN_MOTION":15.27872239,"ECCENTRICITY":0.00036816,"INCLINATION":97.4094,"RA_OF_ASC_NODE":151.5992,"ARG_OF_PERICENTER":313.5044,"MEAN_ANOMALY":46.5889,"EPHEMERIS_TYPE":0,"CLASSIFICATION_TYPE":"U","NORAD_CAT_ID":62674,"ELEMENT_SET_NO":999,"REV_AT_EPOCH":12136,"BSTAR":0.000510288,"MEAN_MOTION_DOT":0.00013824,"MEAN_MOTION_DDOT":0}]
